{"epoch":1784799577,"count":18318,"objects":[{"id":"28366","name":"APRIZESAT 2","type":"PAYLOAD","l1":"1 28366U 04025A   26203.90978548  .00000199  00000-0  74598-4 0  9995","l2":"2 28366  98.1051   7.8739 0106406 141.7256 219.1547 14.38050437156778"},{"id":"28369","name":"SAUDICOMSAT 1","type":"PAYLOAD","l1":"1 28369U 04025D   26203.76392614  .00000229  00000-0  63748-4 0  9995","l2":"2 28369  98.5780 214.8571 0030842 274.7893  84.9782 14.55497160169301"},{"id":"28370","name":"SAUDICOMSAT 2","type":"PAYLOAD","l1":"1 28370U 04025E   26203.45638062  .00000190  00000-0  60639-4 0  9996","l2":"2 28370  98.6645 216.7000 0056092 151.8071 208.6179 14.49997109165212"},{"id":"28372","name":"APRIZESAT 1","type":"PAYLOAD","l1":"1 28372U 04025G   26203.85782978  .00000215  00000-0  64958-4 0  9994","l2":"2 28372  98.6311 215.5551 0045491  47.9569 312.5482 14.51795236167089"},{"id":"28493","name":"NANOSAT(1)","type":"PAYLOAD","l1":"1 28493U 04049B   26203.32089292  .00000788  00000-0  11093-3 0  9991","l2":"2 28493  98.2319 340.8507 0004302 162.5350 197.6010 14.80220471160648"},{"id":"31119","name":"SAUDICOMSAT 7","type":"PAYLOAD","l1":"1 31119U 07012C   26203.87457907  .00000538  00000-0  10500-3 0  9990","l2":"2 31119  98.3805 178.7418 0057026  84.7791 275.9916 14.66143149 27661"},{"id":"31121","name":"SAUDICOMSAT 6","type":"PAYLOAD","l1":"1 31121U 07012E   26203.87025681  .00000319  00000-0  70825-4 0  9997","l2":"2 31121  98.4124 172.0569 0070890 214.8919 144.7625 14.62589020 25403"},{"id":"31124","name":"SAUDICOMSAT 5","type":"PAYLOAD","l1":"1 31124U 07012H   26203.79798473  .00000522  00000-0  98374-4 0  9992","l2":"2 31124  98.3516 179.4039 0047736  15.2367 345.0262 14.68199321 28825"},{"id":"31125","name":"SAUDICOMSAT 3","type":"PAYLOAD","l1":"1 31125U 07012J   26203.90078142  .00000643  00000-0  11312-3 0  9990","l2":"2 31125  98.3172 180.0547 0037854 300.2351  59.5109 14.70758175 30074"},{"id":"31127","name":"SAUDICOMSAT 4","type":"PAYLOAD","l1":"1 31127U 07012L   26203.88720892  .00000395  00000-0  82133-4 0  9999","l2":"2 31127  98.4011 177.1910 0064059 145.8754 214.6591 14.64540617 26513"},{"id":"35684","name":"APRIZESAT 4","type":"PAYLOAD","l1":"1 35684U 09041D   26203.92798613  .00000652  00000-0  84260-4 0  9995","l2":"2 35684  98.1397 279.9589 0042736 203.9970 155.9253 14.83922020916665"},{"id":"35686","name":"APRIZESAT 3","type":"PAYLOAD","l1":"1 35686U 09041F   26203.34088258  .00000307  00000-0  32161-4 0  9990","l2":"2 35686  98.2106 358.2597 0060677 311.9174  47.6880 14.96319418921637"},{"id":"43186","name":"S-NET D","type":"PAYLOAD","l1":"1 43186U 18014G   26203.62323197  .00004991  00000-0  25617-3 0  9999","l2":"2 43186  97.5320 108.1935 0006267 252.0842 107.9708 15.16964031464137"},{"id":"43187","name":"S-NET B","type":"PAYLOAD","l1":"1 43187U 18014H   26203.63538485  .00004552  00000-0  23417-3 0  9998","l2":"2 43187  97.5326 108.1933 0006920 246.4512 113.5995 15.16933087464137"},{"id":"43188","name":"S-NET A","type":"PAYLOAD","l1":"1 43188U 18014J   26203.62191526  .00004940  00000-0  25353-3 0  9991","l2":"2 43188  97.5336 108.3954 0006821 247.3859 112.6653 15.16971988464131"},{"id":"43189","name":"S-NET C","type":"PAYLOAD","l1":"1 43189U 18014K   26203.70541990  .00004450  00000-0  22898-3 0  9992","l2":"2 43189  97.5353 108.5586 0008291 238.8182 121.2239 15.16924717462694"},{"id":"46495","name":"SALSAT","type":"PAYLOAD","l1":"1 46495U 20068K   26203.46128258  .00007239  00000-0  24997-3 0  9998","l2":"2 46495  97.8868 208.6876 0009978 167.8214 192.3268 15.30243913320754"},{"id":"60240","name":"OOV-CUBE","type":"PAYLOAD","l1":"1 60240U 24128F   26203.25313467  .00001541  00000-0  12811-3 0  9990","l2":"2 60240  61.9942 103.2884 0040191 141.6330 218.7632 15.02894414111385"},{"id":"68408","name":"LPNTSAT-001","type":"PAYLOAD","l1":"1 68408U 26065A   26203.46032598  .00001904  00000-0  94857-4 0  9996","l2":"2 68408  97.3971  83.2185 0014820 238.3524 121.6265 15.18693157 17617"},{"id":"69972","name":"CHUANG XIN 26 (CX-26)","type":"PAYLOAD","l1":"1 69972U 26158A   26203.48998492 -.00000176  00000-0 -69006-5 0  9993","l2":"2 69972  49.9826 249.6322 0004966 324.2847  35.7734 14.25124408  1748"}]}